{
  "type": "FeatureCollection",
  "features": [
    {
      "type": "Feature",
      "properties": {
        "norad_id": 31328,
        "name": "FENGYUN 1C DEB",
        "group": "fengyun-1c-debris",
        "lat": -54.53782905387416,
        "lon": -12.84657691292016,
        "alt_km": 852.2630247882889,
        "timestamp": "2025-12-27T16:33:30.504288+00:00",
        "meta_object_name": "FENGYUN 1C DEB",
        "meta_object_id": "1999-025BQG",
        "meta_epoch": "2025-12-27T05:03:31.139712",
        "meta_mean_motion": 14.2895048,
        "meta_eccentricity": 0.0104414,
        "meta_inclination": 98.4852,
        "meta_ra_of_asc_node": 334.5894,
        "meta_arg_of_pericenter": 173.7037,
        "meta_mean_anomaly": 186.5485,
        "meta_ephemeris_type": 0,
        "meta_classification_type": "U",
        "meta_norad_cat_id": 31328,
        "meta_element_set_no": 999,
        "meta_rev_at_epoch": 97669,
        "meta_bstar": 8.099e-05,
        "meta_mean_motion_dot": 1.75e-06,
        "meta_mean_motion_ddot": 0,
        "tle_line1": "1 31328U 99025BQG 25361.21077708  .00000175  00000+0  80990-4 0  9993",
        "tle_line2": "2 31328  98.4852 334.5894 0104414 173.7037 186.5485 14.28950480976698"
      },
      "geometry": {
        "type": "Point",
        "coordinates": [
          -12.84657691292016,
          -54.53782905387416
        ]
      }
    },
    {
      "type": "Feature",
      "properties": {
        "norad_id": 31330,
        "name": "FENGYUN 1C DEB",
        "group": "fengyun-1c-debris",
        "lat": -77.38806019758015,
        "lon": -55.78185402889602,
        "alt_km": 526.2910173680903,
        "timestamp": "2025-12-27T16:33:30.504298+00:00",
        "meta_object_name": "FENGYUN 1C DEB",
        "meta_object_id": "1999-025BQJ",
        "meta_epoch": "2025-12-27T10:54:54.630144",
        "meta_mean_motion": 15.15605907,
        "meta_eccentricity": 0.0002175,
        "meta_inclination": 98.8846,
        "meta_ra_of_asc_node": 168.3014,
        "meta_arg_of_pericenter": 357.8325,
        "meta_mean_anomaly": 60.9804,
        "meta_ephemeris_type": 0,
        "meta_classification_type": "U",
        "meta_norad_cat_id": 31330,
        "meta_element_set_no": 999,
        "meta_rev_at_epoch": 97352,
        "meta_bstar": 0.011065,
        "meta_mean_motion_dot": 0.0021635,
        "meta_mean_motion_ddot": 0,
        "tle_line1": "1 31330U 99025BQJ 25361.45479896  .00216350  00000+0  11065-1 0  9994",
        "tle_line2": "2 31330  98.8846 168.3014 0002175 357.8325  60.9804 15.15605907973528"
      },
      "geometry": {
        "type": "Point",
        "coordinates": [
          -55.78185402889602,
          -77.38806019758015
        ]
      }
    },
    {
      "type": "Feature",
      "properties": {
        "norad_id": 31331,
        "name": "FENGYUN 1C DEB",
        "group": "fengyun-1c-debris",
        "lat": -22.021278136544282,
        "lon": -156.53702140962923,
        "alt_km": 877.9379943837275,
        "timestamp": "2025-12-27T16:33:30.504308+00:00",
        "meta_object_name": "FENGYUN 1C DEB",
        "meta_object_id": "1999-025BQK",
        "meta_epoch": "2025-12-19T07:00:29.877408",
        "meta_mean_motion": 14.00628517,
        "meta_eccentricity": 0.0053435,
        "meta_inclination": 98.8725,
        "meta_ra_of_asc_node": 18.9328,
        "meta_arg_of_pericenter": 164.3513,
        "meta_mean_anomaly": 195.9319,
        "meta_ephemeris_type": 0,
        "meta_classification_type": "U",
        "meta_norad_cat_id": 31331,
        "meta_element_set_no": 999,
        "meta_rev_at_epoch": 63948,
        "meta_bstar": 0.00038925,
        "meta_mean_motion_dot": 5.44e-06,
        "meta_mean_motion_ddot": 0,
        "tle_line1": "1 31331U 99025BQK 25353.29201247  .00000544  00000+0  38925-3 0  9993",
        "tle_line2": "2 31331  98.8725  18.9328 0053435 164.3513 195.9319 14.00628517639487"
      },
      "geometry": {
        "type": "Point",
        "coordinates": [
          -156.53702140962923,
          -22.021278136544282
        ]
      }
    },
    {
      "type": "Feature",
      "properties": {
        "norad_id": 31332,
        "name": "FENGYUN 1C DEB",
        "group": "fengyun-1c-debris",
        "lat": -78.90311842625614,
        "lon": 140.21365156601064,
        "alt_km": 853.5343895208889,
        "timestamp": "2025-12-27T16:33:30.504318+00:00",
        "meta_object_name": "FENGYUN 1C DEB",
        "meta_object_id": "1999-025BQL",
        "meta_epoch": "2025-12-27T00:18:34.820928",
        "meta_mean_motion": 14.11888976,
        "meta_eccentricity": 0.00494138,
        "meta_inclination": 98.706,
        "meta_ra_of_asc_node": 10.9291,
        "meta_arg_of_pericenter": 344.4919,
        "meta_mean_anomaly": 79.8445,
        "meta_ephemeris_type": 0,
        "meta_classification_type": "U",
        "meta_norad_cat_id": 31332,
        "meta_element_set_no": 999,
        "meta_rev_at_epoch": 96173,
        "meta_bstar": 0.00095143307,
        "meta_mean_motion_dot": 1.715e-05,
        "meta_mean_motion_ddot": 0,
        "tle_line1": "1 31332U 99025BQL 25361.01290302  .00001715  00000+0  95143-3 0  9999",
        "tle_line2": "2 31332  98.7060  10.9291 0049413 344.4919  79.8445 14.11888976961737"
      },
      "geometry": {
        "type": "Point",
        "coordinates": [
          140.21365156601064,
          -78.90311842625614
        ]
      }
    },
    {
      "type": "Feature",
      "properties": {
        "norad_id": 31333,
        "name": "FENGYUN 1C DEB",
        "group": "fengyun-1c-debris",
        "lat": -7.6289705742783855,
        "lon": -165.4273912123932,
        "alt_km": 870.9123611696068,
        "timestamp": "2025-12-27T16:33:30.504328+00:00",
        "meta_object_name": "FENGYUN 1C DEB",
        "meta_object_id": "1999-025BQM",
        "meta_epoch": "2025-12-20T18:42:54.770112",
        "meta_mean_motion": 14.26566831,
        "meta_eccentricity": 0.00982731,
        "meta_inclination": 98.4277,
        "meta_ra_of_asc_node": 9.0567,
        "meta_arg_of_pericenter": 2.9268,
        "meta_mean_anomaly": 357.2467,
        "meta_ephemeris_type": 0,
        "meta_classification_type": "U",
        "meta_norad_cat_id": 31333,
        "meta_element_set_no": 999,
        "meta_rev_at_epoch": 96706,
        "meta_bstar": 0.00048897512,
        "meta_mean_motion_dot": 1.199e-05,
        "meta_mean_motion_ddot": 0,
        "tle_line1": "1 31333U 99025BQM 25354.77980058  .00001199  00000+0  48898-3 0  9990",
        "tle_line2": "2 31333  98.4277   9.0567 0098273   2.9268 357.2467 14.26566831967069"
      },
      "geometry": {
        "type": "Point",
        "coordinates": [
          -165.4273912123932,
          -7.6289705742783855
        ]
      }
    },
    {
      "type": "Feature",
      "properties": {
        "norad_id": 31336,
        "name": "FENGYUN 1C DEB",
        "group": "fengyun-1c-debris",
        "lat": -47.48721236313861,
        "lon": -132.63284522245098,
        "alt_km": 829.4862260657983,
        "timestamp": "2025-12-27T16:33:30.504338+00:00",
        "meta_object_name": "FENGYUN 1C DEB",
        "meta_object_id": "1999-025BQQ",
        "meta_epoch": "2025-12-26T23:22:45.277824",
        "meta_mean_motion": 14.38729333,
        "meta_eccentricity": 0.0093872,
        "meta_inclination": 98.4631,
        "meta_ra_of_asc_node": 56.0081,
        "meta_arg_of_pericenter": 76.501,
        "meta_mean_anomaly": 45.816,
        "meta_ephemeris_type": 0,
        "meta_classification_type": "U",
        "meta_norad_cat_id": 31336,
        "meta_element_set_no": 999,
        "meta_rev_at_epoch": 97995,
        "meta_bstar": 0.00033538,
        "meta_mean_motion_dot": 1.039e-05,
        "meta_mean_motion_ddot": 0,
        "tle_line1": "1 31336U 99025BQQ 25360.97413516  .00001039  00000+0  33538-3 0  9990",
        "tle_line2": "2 31336  98.4631  56.0081 0093872  76.5010  45.8160 14.38729333979953"
      },
      "geometry": {
        "type": "Point",
        "coordinates": [
          -132.63284522245098,
          -47.48721236313861
        ]
      }
    },
    {
      "type": "Feature",
      "properties": {
        "norad_id": 31338,
        "name": "FENGYUN 1C DEB",
        "group": "fengyun-1c-debris",
        "lat": -76.90610870554072,
        "lon": -117.23469721958658,
        "alt_km": 872.4785212773459,
        "timestamp": "2025-12-27T16:33:30.504348+00:00",
        "meta_object_name": "FENGYUN 1C DEB",
        "meta_object_id": "1999-025BQS",
        "meta_epoch": "2025-12-24T19:38:38.429376",
        "meta_mean_motion": 14.20844571,
        "meta_eccentricity": 0.00720648,
        "meta_inclination": 98.7165,
        "meta_ra_of_asc_node": 198.6657,
        "meta_arg_of_pericenter": 73.8557,
        "meta_mean_anomaly": 287.0537,
        "meta_ephemeris_type": 0,
        "meta_classification_type": "U",
        "meta_norad_cat_id": 31338,
        "meta_element_set_no": 999,
        "meta_rev_at_epoch": 63829,
        "meta_bstar": 0.0023341859,
        "meta_mean_motion_dot": 5.139e-05,
        "meta_mean_motion_ddot": 0,
        "tle_line1": "1 31338U 99025BQS 25358.81850034  .00005139  00000+0  23342-2 0  9998",
        "tle_line2": "2 31338  98.7165 198.6657 0072064  73.8557 287.0537 14.20844571638298"
      },
      "geometry": {
        "type": "Point",
        "coordinates": [
          -117.23469721958658,
          -76.90610870554072
        ]
      }
    }
  ]
}